TEVEL2-8                
1 63239U 25052AF  26068.66815442  .00019130  00000+0  69304-3 0  9993
2 63239  97.4055 324.2923 0008031 124.9191 235.2804 15.28392908 54807
STARLINK-36491          
1 67310U 26002F   26068.41139569  .00036259  00000+0  13209-2 0  9998
2 67310  42.9986 327.0738 0000871 293.9066  66.1694 15.27574029 11037
